[{"OBJECT_NAME":"LINGQIAO VIDEO A","OBJECT_ID":"2015-057B","EPOCH":"2026-03-09T23:59:14.455968","MEAN_MOTION":14.77240393,"ECCENTRICITY":0.00154698,"INCLINATION":97.6615,"RA_OF_ASC_NODE":68.7182,"ARG_OF_PERICENTER":229.1466,"MEAN_ANOMALY":130.8405,"EPHEMERIS_TYPE":0,"CLASSIFICATION_TYPE":"U","NORAD_CAT_ID":40959,"ELEMENT_SET_NO":999,"REV_AT_EPOCH":56076,"BSTAR":0.00010661468,"MEAN_MOTION_DOT":7.08e-6,"MEAN_MOTION_DDOT":0},{"OBJECT_NAME":"COSMOS 2251 DEB","OBJECT_ID":"1993-036AFB","EPOCH":"2026-03-08T05:54:15.313248","MEAN_MOTION":14.74863813,"ECCENTRICITY":0.00335216,"INCLINATION":73.9855,"RA_OF_ASC_NODE":242.5503,"ARG_OF_PERICENTER":15.801,"MEAN_ANOMALY":42.6126,"EPHEMERIS_TYPE":0,"CLASSIFICATION_TYPE":"U","NORAD_CAT_ID":34972,"ELEMENT_SET_NO":999,"REV_AT_EPOCH":88910,"BSTAR":0.0023229983,"MEAN_MOTION_DOT":0.00015724,"MEAN_MOTION_DDOT":0}]
